start=new Date('2022-03-31T00:00:00.000Z').valueOf();
sats=[{"NORAD_CAT_ID":"47733","MEAN_MOTION_DDOT":"0.0000000000000","EPOCH":"2022-03-30T14:18:15.494688","INCLINATION":"53.0548","REF_FRAME":"TEME","GP_ID":"200072027","PERIAPSIS":"546.104","FILE":"3380779","DECAY_DATE":null,"BSTAR":"-0.00001969000000","SEMIMAJOR_AXIS":"6925.361","OBJECT_ID":"2021-017M","MEAN_MOTION_DOT":"-0.00000575","LAUNCH_DATE":"2021-03-04","PERIOD":"95.592","ELEMENT_SET_NO":"999","SITE":"AFETR","REV_AT_EPOCH":"6058","TLE_LINE1":"1 47733U 21017M   22089.59601267 -.00000575  00000-0 -19690-4 0  9990","CENTER_NAME":"EARTH","ECCENTRICITY":"0.00016190","TIME_SYSTEM":"UTC","ARG_OF_PERICENTER":"58.2514","CLASSIFICATION_TYPE":"U","MEAN_MOTION":"15.06396045","MEAN_ANOMALY":"301.8632","COUNTRY_CODE":"US","OBJECT_TYPE":"PAYLOAD","RA_OF_ASC_NODE":"206.4418","APOAPSIS":"548.347","TLE_LINE2":"2 47733  53.0548 206.4418 0001619  58.2514 301.8632 15.06396045 60589","OBJECT_NAME":"STARLINK-2143","MEAN_ELEMENT_THEORY":"SGP4","RCS_SIZE":"LARGE","EPHEMERIS_TYPE":"0"},{"MEAN_MOTION_DOT":"0.00000499","OBJECT_ID":"2021-017N","SEMIMAJOR_AXIS":"6925.320","BSTAR":"0.00005240400000","DECAY_DATE":null,"PERIAPSIS":"546.085","FILE":"3380787","TLE_LINE1":"1 47734U 21017N   22089.74805995  .00000499  00000-0  52404-4 0  9995","SITE":"AFETR","REV_AT_EPOCH":"6071","ELEMENT_SET_NO":"999","PERIOD":"95.592","LAUNCH_DATE":"2021-03-04","REF_FRAME":"TEME","INCLINATION":"53.0540","MEAN_MOTION_DDOT":"0.0000000000000","EPOCH":"2022-03-30T17:57:12.379680","NORAD_CAT_ID":"47734","GP_ID":"200097410","APOAPSIS":"548.286","RA_OF_ASC_NODE":"195.7755","OBJECT_TYPE":"PAYLOAD","EPHEMERIS_TYPE":"0","RCS_SIZE":"LARGE","MEAN_ELEMENT_THEORY":"SGP4","OBJECT_NAME":"STARLINK-2144","TLE_LINE2":"2 47734  53.0540 195.7755 0001589  54.8217 305.2921 15.06409226 60714","MEAN_MOTION":"15.06409226","ARG_OF_PERICENTER":"54.8217","CLASSIFICATION_TYPE":"U","ECCENTRICITY":"0.00015890","TIME_SYSTEM":"UTC","CENTER_NAME":"EARTH","COUNTRY_CODE":"US","MEAN_ANOMALY":"305.2921"},{"MEAN_ANOMALY":"303.7835","COUNTRY_CODE":"US","CENTER_NAME":"EARTH","ECCENTRICITY":"0.00016140","TIME_SYSTEM":"UTC","CLASSIFICATION_TYPE":"U","ARG_OF_PERICENTER":"56.3308","MEAN_MOTION":"15.06406546","TLE_LINE2":"2 47735  53.0551 120.4583 0001614  56.3308 303.7835 15.06406546 61752","OBJECT_NAME":"STARLINK-2146","MEAN_ELEMENT_THEORY":"SGP4","RCS_SIZE":"LARGE","EPHEMERIS_TYPE":"0","OBJECT_TYPE":"PAYLOAD","APOAPSIS":"548.311","RA_OF_ASC_NODE":"120.4583","GP_ID":"200096158","NORAD_CAT_ID":"47735","MEAN_MOTION_DDOT":"0.0000000000000","EPOCH":"2022-03-30T19:33:23.348448","INCLINATION":"53.0551","REF_FRAME":"TEME","LAUNCH_DATE":"2021-03-04","PERIOD":"95.592","ELEMENT_SET_NO":"999","REV_AT_EPOCH":"6175","SITE":"AFETR","TLE_LINE1":"1 47735U 21017P   22089.81485357  .00003016  00000-0  22123-3 0  9992","PERIAPSIS":"546.076","FILE":"3380787","DECAY_DATE":null,"BSTAR":"0.00022123000000","OBJECT_ID":"2021-017P","SEMIMAJOR_AXIS":"6925.328","MEAN_MOTION_DOT":"0.00003016"},{"REF_FRAME":"TEME","INCLINATION":"53.0548","MEAN_MOTION_DDOT":"0.0000000000000","EPOCH":"2022-03-30T13:59:40.944192","NORAD_CAT_ID":"47736","GP_ID":"200096408","MEAN_MOTION_DOT":"-0.00000086","OBJECT_ID":"2021-017Q","SEMIMAJOR_AXIS":"6925.355","BSTAR":"0.00001311400000","DECAY_DATE":null,"FILE":"3380787","PERIAPSIS":"546.092","TLE_LINE1":"1 47736U 21017Q   22089.58311278 -.00000086  00000-0  13114-4 0  9993","SITE":"AFETR","REV_AT_EPOCH":"6086","ELEMENT_SET_NO":"999","PERIOD":"95.592","LAUNCH_DATE":"2021-03-04","MEAN_MOTION":"15.06397745","ARG_OF_PERICENTER":"58.3888","CLASSIFICATION_TYPE":"U","ECCENTRICITY":"0.00016300","TIME_SYSTEM":"UTC","CENTER_NAME":"EARTH","COUNTRY_CODE":"US","MEAN_ANOMALY":"301.7260","RA_OF_ASC_NODE":"186.5188","APOAPSIS":"548.349","OBJECT_TYPE":"PAYLOAD","EPHEMERIS_TYPE":"0","RCS_SIZE":"LARGE","MEAN_ELEMENT_THEORY":"SGP4","OBJECT_NAME":"STARLINK-2147","TLE_LINE2":"2 47736  53.0548 186.5188 0001630  58.3888 301.7260 15.06397745 60867"},{"OBJECT_TYPE":"PAYLOAD","RA_OF_ASC_NODE":"114.5444","APOAPSIS":"475.891","RCS_SIZE":"LARGE","EPHEMERIS_TYPE":"0","TLE_LINE2":"2 47737  53.0552 114.5444 0001711  50.8989 309.2162 15.30366898 61898","OBJECT_NAME":"STARLINK-2148","MEAN_ELEMENT_THEORY":"SGP4","TIME_SYSTEM":"UTC","ECCENTRICITY":"0.00017110","CLASSIFICATION_TYPE":"U","ARG_OF_PERICENTER":"50.8989","MEAN_MOTION":"15.30366898","CENTER_NAME":"EARTH","MEAN_ANOMALY":"309.2162","COUNTRY_CODE":"US","SEMIMAJOR_AXIS":"6852.854","OBJECT_ID":"2021-017R","MEAN_MOTION_DOT":"-0.00001192","PERIAPSIS":"473.546","FILE":"3380787","DECAY_DATE":null,"BSTAR":"-0.00002794900000","ELEMENT_SET_NO":"999","REV_AT_EPOCH":"6189","SITE":"AFETR","TLE_LINE1":"1 47737U 21017R   22089.84847183 -.00001192  00000-0 -27949-4 0  9993","LAUNCH_DATE":"2021-03-04","PERIOD":"94.095","MEAN_MOTION_DDOT":"0.0000000000000","EPOCH":"2022-03-30T20:21:47.966112","INCLINATION":"53.0552","REF_FRAME":"TEME","NORAD_CAT_ID":"47737","GP_ID":"200097160"},{"MEAN_ANOMALY":"306.2722","COUNTRY_CODE":"US","MEAN_MOTION":"15.06389637","ECCENTRICITY":"0.00013330","TIME_SYSTEM":"UTC","CLASSIFICATION_TYPE":"U","ARG_OF_PERICENTER":"53.8390","CENTER_NAME":"EARTH","EPHEMERIS_TYPE":"0","RCS_SIZE":"LARGE","MEAN_ELEMENT_THEORY":"SGP4","TLE_LINE2":"2 47738  53.0551 185.8552 0001333  53.8390 306.2722 15.06389637 60884","OBJECT_NAME":"STARLINK-2149","OBJECT_TYPE":"PAYLOAD","APOAPSIS":"548.168","RA_OF_ASC_NODE":"185.8552","GP_ID":"200097911","INCLINATION":"53.0551","REF_FRAME":"TEME","MEAN_MOTION_DDOT":"0.0000000000000","EPOCH":"2022-03-30T17:32:00.490272","NORAD_CAT_ID":"47738","TLE_LINE1":"1 47738U 21017S   22089.73056123  .00006250  00000-0  43819-3 0  9999","ELEMENT_SET_NO":"999","SITE":"AFETR","REV_AT_EPOCH":"6088","PERIOD":"95.593","LAUNCH_DATE":"2021-03-04","MEAN_MOTION_DOT":"0.00006250","SEMIMAJOR_AXIS":"6925.380","OBJECT_ID":"2021-017S","BSTAR":"0.00043819000000","PERIAPSIS":"546.322","FILE":"3380787","DECAY_DATE":null},{"INCLINATION":"53.0545","REF_FRAME":"TEME","MEAN_MOTION_DDOT":"0.0000000000000","EPOCH":"2022-03-30T20:15:52.850880","NORAD_CAT_ID":"47739","GP_ID":"200096659","MEAN_MOTION_DOT":"0.00001239","SEMIMAJOR_AXIS":"6925.344","OBJECT_ID":"2021-017T","BSTAR":"0.00010205000000","PERIAPSIS":"546.199","FILE":"3380787","DECAY_DATE":null,"TLE_LINE1":"1 47739U 21017T   22089.84436170  .00001239  00000-0  10205-3 0  9991","ELEMENT_SET_NO":"999","SITE":"AFETR","REV_AT_EPOCH":"6055","PERIOD":"95.592","LAUNCH_DATE":"2021-03-04","MEAN_MOTION":"15.06401493","TIME_SYSTEM":"UTC","ECCENTRICITY":"0.00014590","ARG_OF_PERICENTER":"60.7084","CLASSIFICATION_TYPE":"U","CENTER_NAME":"EARTH","MEAN_ANOMALY":"299.4050","COUNTRY_CODE":"US","OBJECT_TYPE":"PAYLOAD","RA_OF_ASC_NODE":"210.3387","APOAPSIS":"548.219","EPHEMERIS_TYPE":"0","RCS_SIZE":"LARGE","MEAN_ELEMENT_THEORY":"SGP4","TLE_LINE2":"2 47739  53.0545 210.3387 0001459  60.7084 299.4050 15.06401493 60550","OBJECT_NAME":"STARLINK-2150"},{"NORAD_CAT_ID":"47740","REF_FRAME":"TEME","INCLINATION":"53.0533","MEAN_MOTION_DDOT":"0.0000000000000","EPOCH":"2022-03-30T18:13:08.934816","GP_ID":"200046320","BSTAR":"0.00069547000000","DECAY_DATE":null,"FILE":"3380603","PERIAPSIS":"545.976","MEAN_MOTION_DOT":"0.00010098","SEMIMAJOR_AXIS":"6925.293","OBJECT_ID":"2021-017U","PERIOD":"95.591","LAUNCH_DATE":"2021-03-04","TLE_LINE1":"1 47740U 21017U   22089.75913119  .00010098  00000-0  69547-3 0  9992","SITE":"AFETR","REV_AT_EPOCH":"6006","ELEMENT_SET_NO":"999","CENTER_NAME":"EARTH","MEAN_MOTION":"15.06417968","ARG_OF_PERICENTER":"65.4628","CLASSIFICATION_TYPE":"U","ECCENTRICITY":"0.00017080","TIME_SYSTEM":"UTC","COUNTRY_CODE":"US","MEAN_ANOMALY":"294.6539","RA_OF_ASC_NODE":"195.7223","APOAPSIS":"548.341","OBJECT_TYPE":"PAYLOAD","MEAN_ELEMENT_THEORY":"SGP4","OBJECT_NAME":"STARLINK-2152","TLE_LINE2":"2 47740  53.0533 195.7223 0001708  65.4628 294.6539 15.06417968 60066","EPHEMERIS_TYPE":"0","RCS_SIZE":"LARGE"},{"TLE_LINE1":"1 47741U 21017V   22089.57483086  .00005058  00000-0  35834-3 0  9990","REV_AT_EPOCH":"6067","SITE":"AFETR","ELEMENT_SET_NO":"999","PERIOD":"95.593","LAUNCH_DATE":"2021-03-04","MEAN_MOTION_DOT":"0.00005058","OBJECT_ID":"2021-017V","SEMIMAJOR_AXIS":"6925.382","BSTAR":"0.00035834000000","DECAY_DATE":null,"PERIAPSIS":"546.183","FILE":"3380787","GP_ID":"200097661","REF_FRAME":"TEME","INCLINATION":"53.0536","MEAN_MOTION_DDOT":"0.0000000000000","EPOCH":"2022-03-30T13:47:45.386304","NORAD_CAT_ID":"47741","EPHEMERIS_TYPE":"0","RCS_SIZE":"LARGE","MEAN_ELEMENT_THEORY":"SGP4","OBJECT_NAME":"STARLINK-2154","TLE_LINE2":"2 47741  53.0536 196.5493 0001536  61.4419 298.6724 15.06389207 60672","APOAPSIS":"548.310","RA_OF_ASC_NODE":"196.5493","OBJECT_TYPE":"PAYLOAD","COUNTRY_CODE":"US","MEAN_ANOMALY":"298.6724","MEAN_MOTION":"15.06389207","CLASSIFICATION_TYPE":"U","ARG_OF_PERICENTER":"61.4419","TIME_SYSTEM":"UTC","ECCENTRICITY":"0.00015360","CENTER_NAME":"EARTH"},{"BSTAR":"-0.00000273290000","DECAY_DATE":null,"FILE":"3380787","PERIAPSIS":"546.174","MEAN_MOTION_DOT":"-0.00000322","OBJECT_ID":"2021-017W","SEMIMAJOR_AXIS":"6925.372","PERIOD":"95.593","LAUNCH_DATE":"2021-03-04","TLE_LINE1":"1 47742U 21017W   22089.58681260 -.00000322  00000-0 -27329-5 0  9999","SITE":"AFETR","REV_AT_EPOCH":"6086","ELEMENT_SET_NO":"999","NORAD_CAT_ID":"47742","REF_FRAME":"TEME","INCLINATION":"53.0534","MEAN_MOTION_DDOT":"0.0000000000000","EPOCH":"2022-03-30T14:05:00.608640","GP_ID":"200097411","APOAPSIS":"548.300","RA_OF_ASC_NODE":"186.5024","OBJECT_TYPE":"PAYLOAD","MEAN_ELEMENT_THEORY":"SGP4","OBJECT_NAME":"STARLINK-2156","TLE_LINE2":"2 47742  53.0534 186.5024 0001535  61.8738 298.2406 15.06392347 60860","EPHEMERIS_TYPE":"0","RCS_SIZE":"LARGE","CENTER_NAME":"EARTH","MEAN_MOTION":"15.06392347","CLASSIFICATION_TYPE":"U","ARG_OF_PERICENTER":"61.8738","TIME_SYSTEM":"UTC","ECCENTRICITY":"0.00015350","COUNTRY_CODE":"US","MEAN_ANOMALY":"298.2406"}];
